[{"OBJECT_NAME":"STARLINK-32409","OBJECT_ID":"2024-187T","EPOCH":"2026-03-09T22:55:20.411904","MEAN_MOTION":15.30201446,"ECCENTRICITY":0.00012699,"INCLINATION":53.1613,"RA_OF_ASC_NODE":48.9209,"ARG_OF_PERICENTER":75.3843,"MEAN_ANOMALY":284.7298,"EPHEMERIS_TYPE":0,"CLASSIFICATION_TYPE":"U","NORAD_CAT_ID":61591,"ELEMENT_SET_NO":999,"REV_AT_EPOCH":7933,"BSTAR":-3.2707094e-5,"MEAN_MOTION_DOT":-1.328e-5,"MEAN_MOTION_DDOT":0},{"OBJECT_NAME":"COSMOS 2251 DEB","OBJECT_ID":"1993-036BTX","EPOCH":"2026-02-28T17:34:44.973408","MEAN_MOTION":15.25753352,"ECCENTRICITY":0.00216382,"INCLINATION":73.9681,"RA_OF_ASC_NODE":229.3494,"ARG_OF_PERICENTER":13.6287,"MEAN_ANOMALY":346.5492,"EPHEMERIS_TYPE":0,"CLASSIFICATION_TYPE":"U","NORAD_CAT_ID":38487,"ELEMENT_SET_NO":999,"REV_AT_EPOCH":67986,"BSTAR":0.0024802785,"MEAN_MOTION_DOT":0.00064261,"MEAN_MOTION_DDOT":0}]
